SILVERSAT               
1 66909U 98067XV  26034.57924955  .00114116  00000+0  12842-2 0  9993
2 66909  51.6256 238.1341 0002842 191.1942 168.8989 15.61702446  9848
1998-067XW              
1 66910U 98067XW  26034.59036105  .00090171  00000+0  10667-2 0  9995
2 66910  51.6249 238.2042 0001115 183.9676 176.1309 15.60516015  9848
1998-067XX              
1 66911U 98067XX  26033.97768564  .00107333  00000+0  11667-2 0  9998
2 66911  51.6238 240.8615 0002356 210.9723 149.1132 15.62627778  9748
1998-067XY              
1 66912U 98067XY  26034.57995961  .00069650  00000+0  91264-3 0  9990
2 66912  51.6266 238.8901 0001811 141.7786 218.3335 15.57928256  9822
