CCSDS_OMM_VERS = 2.0
CREATION_DATE  = 
ORIGINATOR     = 

OBJECT_NAME    = SILVERSAT
OBJECT_ID      = 1998-067XV
CENTER_NAME    = EARTH
REF_FRAME      = TEME
TIME_SYSTEM    = UTC
MEAN_ELEMENT_THEORY = SGP/SGP4

EPOCH          = 2026-02-03T13:54:07.161120
MEAN_MOTION    = 15.61702446
ECCENTRICITY   = .00028421
INCLINATION    = 51.6256
RA_OF_ASC_NODE = 238.1341
ARG_OF_PERICENTER = 191.1942
MEAN_ANOMALY   = 168.8989

EPHEMERIS_TYPE = 0
CLASSIFICATION_TYPE = U
NORAD_CAT_ID   = 66909
ELEMENT_SET_NO = 999
REV_AT_EPOCH   = 984
BSTAR          = .12842336E-2
MEAN_MOTION_DOT = .114116E-2
MEAN_MOTION_DDOT = 0

CCSDS_OMM_VERS = 2.0
CREATION_DATE  = 
ORIGINATOR     = 

OBJECT_NAME    = 1998-067XW
OBJECT_ID      = 1998-067XW
CENTER_NAME    = EARTH
REF_FRAME      = TEME
TIME_SYSTEM    = UTC
MEAN_ELEMENT_THEORY = SGP/SGP4

EPOCH          = 2026-02-03T14:10:07.194720
MEAN_MOTION    = 15.60516015
ECCENTRICITY   = .00011156
INCLINATION    = 51.6249
RA_OF_ASC_NODE = 238.2042
ARG_OF_PERICENTER = 183.9676
MEAN_ANOMALY   = 176.1309

EPHEMERIS_TYPE = 0
CLASSIFICATION_TYPE = U
NORAD_CAT_ID   = 66910
ELEMENT_SET_NO = 999
REV_AT_EPOCH   = 984
BSTAR          = .10667058E-2
MEAN_MOTION_DOT = .90171E-3
MEAN_MOTION_DDOT = 0

CCSDS_OMM_VERS = 2.0
CREATION_DATE  = 
ORIGINATOR     = 

OBJECT_NAME    = 1998-067XX
OBJECT_ID      = 1998-067XX
CENTER_NAME    = EARTH
REF_FRAME      = TEME
TIME_SYSTEM    = UTC
MEAN_ELEMENT_THEORY = SGP/SGP4

EPOCH          = 2026-02-02T23:27:52.039296
MEAN_MOTION    = 15.62627778
ECCENTRICITY   = .00023563
INCLINATION    = 51.6238
RA_OF_ASC_NODE = 240.8615
ARG_OF_PERICENTER = 210.9723
MEAN_ANOMALY   = 149.1132

EPHEMERIS_TYPE = 0
CLASSIFICATION_TYPE = U
NORAD_CAT_ID   = 66911
ELEMENT_SET_NO = 999
REV_AT_EPOCH   = 974
BSTAR          = .11666529E-2
MEAN_MOTION_DOT = .107333E-2
MEAN_MOTION_DDOT = 0

CCSDS_OMM_VERS = 2.0
CREATION_DATE  = 
ORIGINATOR     = 

OBJECT_NAME    = 1998-067XY
OBJECT_ID      = 1998-067XY
CENTER_NAME    = EARTH
REF_FRAME      = TEME
TIME_SYSTEM    = UTC
MEAN_ELEMENT_THEORY = SGP/SGP4

EPOCH          = 2026-02-03T13:55:08.510304
MEAN_MOTION    = 15.57928256
ECCENTRICITY   = .00018118
INCLINATION    = 51.6266
RA_OF_ASC_NODE = 238.8901
ARG_OF_PERICENTER = 141.7786
MEAN_ANOMALY   = 218.3335

EPHEMERIS_TYPE = 0
CLASSIFICATION_TYPE = U
NORAD_CAT_ID   = 66912
ELEMENT_SET_NO = 999
REV_AT_EPOCH   = 982
BSTAR          = .91263815E-3
MEAN_MOTION_DOT = .6965E-3
MEAN_MOTION_DDOT = 0

